BEIDOU-2 IGSO-1 (C06)   
1 36828U 10036A   23244.73521628 -.00000150  00000+0  00000+0 0  9991
2 36828  54.2368 172.1956 0036866 189.2073 351.1854  1.00253800 48005
BEIDOU-2 G4 (C04)       
1 37210U 10057A   23245.51336189 -.00000127  00000+0  00000+0 0  9997
2 37210   1.1718  60.7888 0005990 150.8361 114.5036  1.00270993 47076
BEIDOU-2 IGSO-2 (C07)   
1 37256U 10068A   23244.53165319 -.00000181  00000+0  00000+0 0  9995
2 37256  49.4128 284.3386 0032580 212.1809 143.1950  1.00284635 46561
BEIDOU-2 IGSO-3 (C08)   
1 37384U 11013A   23244.88799431 -.00000171  00000+0  00000+0 0  9993
2 37384  60.9361  49.9170 0027971 173.8649 184.6601  1.00282044 45440
BEIDOU-2 IGSO-4 (C09)   
1 37763U 11038A   23244.74832148 -.00000097  00000+0  00000+0 0  9996
2 37763  54.5107 174.7369 0112199 228.1507 302.7106  1.00274281 44423
BEIDOU-2 IGSO-5 (C10)   
1 37948U 11073A   23244.58111609 -.00000135  00000+0  00000+0 0  9997
2 37948  49.5379 284.0059 0095221 220.3289 141.3806  1.00273014 42910
BEIDOU-2 G5 (C05)       
1 38091U 12008A   23245.49029979  .00000043  00000+0  00000+0 0  9992
2 38091   1.7049  68.4004 0002964 169.1325 338.9992  1.00271744 42267
BEIDOU-2 M3 (C11)       
1 38250U 12018A   23244.51360186 -.00000094  00000+0  00000+0 0  9997
2 38250  56.5128 338.9691 0023303 255.3450 104.4369  1.86231013 77298
BEIDOU-2 M4 (C12)       
1 38251U 12018B   23244.44505231 -.00000093  00000+0  00000+0 0  9991
2 38251  56.4235 338.2646 0014143 254.8631 105.0215  1.86231710 76950
BEIDOU-2 M6 (C14)       
1 38775U 12050B   23244.15503260  .00000011  00000+0  00000+0 0  9995
2 38775  55.6879  96.8737 0011787 339.4721  20.5748  1.86231181 74317
BEIDOU-2 G6 (C02)       
1 38953U 12059A   23244.92202507 -.00000190  00000+0  00000+0 0  9996
2 38953   1.8189  81.9611 0007340 314.1505   0.6487  1.00268965 39684
BEIDOU-3S IGSO-1S (C31) 
1 40549U 15019A   23244.67797343 -.00000158  00000+0  00000+0 0  9992
2 40549  51.1036 307.6034 0040994 195.9568 175.0346  1.00256343 30858
BEIDOU-3S M2S (C57)     
1 40748U 15037A   23244.64782423 -.00000094  00000+0  00000+0 0  9992
2 40748  55.6639 336.8588 0011154 240.5650 119.3668  1.86233129 55137
BEIDOU-3S M1S (C58)     
1 40749U 15037B   23244.38097517 -.00000092  00000+0  00000+0 0  9995
2 40749  55.6671 336.8542 0003020 302.8769  57.1367  1.86232757 55131
BEIDOU-3S IGSO-2S (C56) 
1 40938U 15053A   23244.52538078 -.00000111  00000+0  00000+0 0  9993
2 40938  50.8131 270.7764 0048044 194.3460 160.3669  1.00283657 29121
BEIDOU-2 IGSO-6 (C13)   
1 41434U 16021A   23245.42581601 -.00000153  00000+0  00000+0 0  9997
2 41434  58.7510  48.2832 0047082 217.7140 324.9708  1.00283062 27255
BEIDOU-2 G7 (C03)       
1 41586U 16037A   23244.78392017 -.00000369  00000+0  00000+0 0  9990
2 41586   1.8641  68.4085 0007213 346.9647 318.0828  1.00271894 26560
BEIDOU-3 M1 (C19)       
1 43001U 17069A   23244.99527697  .00000002  00000+0  00000+0 0  9990
2 43001  55.8402  96.9039 0007880 301.9764  58.0372  1.86231469 39628
BEIDOU-3 M2 (C20)       
1 43002U 17069B   23244.93199844  .00000003  00000+0  00000+0 0  9995
2 43002  55.8393  96.9423 0006382 334.0372  26.0214  1.86231116 39611
BEIDOU-3 M7 (C27)       
1 43107U 18003A   23244.68280998 -.00000095  00000+0  00000+0 0  9995
2 43107  55.1199 337.5755 0003602  78.7907 281.2912  1.86232351 38367
BEIDOU-3 M8 (C28)       
1 43108U 18003B   23244.08393493 -.00000092  00000+0  00000+0 0  9992
2 43108  55.1133 337.5830 0003911 242.2075 117.7939  1.86230790 38364
BEIDOU-3 M4 (C22)       
1 43207U 18018A   23243.98939135  .00000013  00000+0  00000+0 0  9997
2 43207  55.7981  97.0367 0004950  12.1765 347.9306  1.86231359 37746
BEIDOU-3 M3 (C21)       
1 43208U 18018B   23244.05604221  .00000012  00000+0  00000+0 0  9991
2 43208  55.7976  97.0389 0005937 319.1944  40.8559  1.86231252 37741
BEIDOU-3 M9 (C29)       
1 43245U 18029A   23244.27886221 -.00000091  00000+0  00000+0 0  9998
2 43245  55.0146 335.3232 0001367 210.7013 149.3353  1.86232311 36906
BEIDOU-3 M10 (C30)      
1 43246U 18029B   23244.74584802 -.00000094  00000+0  00000+0 0  9994
2 43246  55.0116 335.3359 0002693 358.4316   1.6124  1.86232811 36904
BEIDOU-2 IGSO-7 (C16)   
1 43539U 18057A   23244.69068953 -.00000159  00000+0  00000+0 0  9990
2 43539  55.1211 171.8823 0064609 231.2573 299.3093  1.00284143 18927
BEIDOU-3 M5 (C23)       
1 43581U 18062A   23244.42915080  .00000025  00000+0  00000+0 0  9997
2 43581  54.1789 217.0112 0005334 279.1244  80.7755  1.86231734 34649
BEIDOU-3 M6 (C24)       
1 43582U 18062B   23245.36894303  .00000031  00000+0  00000+0 0  9993
2 43582  54.1783 216.9687 0004921 354.1698   5.7857  1.86229562 34665
BEIDOU-3 M12 (C26)      
1 43602U 18067A   23244.23136023  .00000024  00000+0  00000+0 0  9996
2 43602  54.2660 215.6627 0006935  11.5693 348.4058  1.86231464 34124
BEIDOU-3 M11 (C25)      
1 43603U 18067B   23244.90213422  .00000028  00000+0  00000+0 0  9994
2 43603  54.2630 215.6057 0004069 355.3235   4.6323  1.86231388 34161
BEIDOU-3 M13 (C32)      
1 43622U 18072A   23244.86102861  .00000003  00000+0  00000+0 0  9993
2 43622  55.7683  96.5478 0004618 299.9448  60.0999  1.86231572 33673
BEIDOU-3 M14 (C33)      
1 43623U 18072B   23244.18953435  .00000010  00000+0  00000+0 0  9998
2 43623  55.7695  96.5631 0003252 346.1747  13.9102  1.86231664 33651
BEIDOU-3 M16 (C35)      
1 43647U 18078A   23244.35184003 -.00000092  00000+0  00000+0 0  9997
2 43647  54.9108 335.4436 0005950  10.4720 349.5847  1.86227148 33166
BEIDOU-3 M15 (C34)      
1 43648U 18078B   23245.01948520 -.00000096  00000+0  00000+0 0  9998
2 43648  54.9059 335.4245 0002907  25.9890 334.0704  1.86232178 33203
BEIDOU-3 G1 (C59)       
1 43683U 18085A   23244.82779860 -.00000294  00000+0  00000+0 0  9992
2 43683   1.5086 124.5612 0002859 354.3709 299.8179  1.00267834 17837
BEIDOU-3 M17 (C36)      
1 43706U 18093A   23245.16750703  .00000030  00000+0  00000+0 0  9997
2 43706  54.2611 216.9031 0010397 279.5797  80.2635  1.86231835 32544
BEIDOU-3 M18 (C37)      
1 43707U 18093B   23244.49648581  .00000026  00000+0  00000+0 0  9998
2 43707  54.2620 216.9176 0008558 304.0249  55.8538  1.86229637 32544
BEIDOU-3 IGSO-1 (C38)   
1 44204U 19023A   23245.35889561 -.00000208  00000+0  00000+0 0  9999
2 44204  57.2172  48.2620 0023478 193.7972 348.0656  1.00282749 16141
BEIDOU-2 G8 (C01)       
1 44231U 19027A   23244.92271646 -.00000262  00000+0  00000+0 0  9994
2 44231   1.9493  81.1517 0006285 127.4507 248.9400  1.00271865 15858
BEIDOU-3 IGSO-2 (C39)   
1 44337U 19035A   23244.69910450 -.00000161  00000+0  00000+0 0  9995
2 44337  55.1536 167.8158 0033181 197.2606 346.9434  1.00275137 15444
BEIDOU-3 M24 (C46)      
1 44542U 19061A   23244.56822432  .00000026  00000+0  00000+0 0  9999
2 44542  54.4887 217.1530 0008376 338.1112  21.8133  1.86231379 26803
BEIDOU-3 M23 (C45)      
1 44543U 19061B   23244.42111767  .00000026  00000+0  00000+0 0  9997
2 44543  54.4870 217.1270 0005883 321.1124 212.0715  1.86231627 26808
BEIDOU-3 IGSO-3 (C40)   
1 44709U 19073A   23244.53232936 -.00000162  00000+0  00000+0 0  9990
2 44709  56.5383 291.7818 0035233 189.6213 170.4199  1.00283070 14230
BEIDOU-3 M22 (C44)      
1 44793U 19078A   23243.33969844 -.00000087  00000+0  00000+0 0  9996
2 44793  54.7597 335.4463 0004865  20.2264 339.8358  1.86232105 25636
BEIDOU-3 M21 (C43)      
1 44794U 19078B   23241.32247510 -.00000080  00000+0  00000+0 0  9996
2 44794  54.7349 335.4982 0002813  13.9286 346.1178  1.86232532 25604
BEIDOU-3 M19 (C41)      
1 44864U 19090A   23244.53165359  .00000007  00000+0  00000+0 0  9992
2 44864  55.7023  96.7457 0015548 276.0186 269.4419  1.86231660 25242
BEIDOU-3 M20 (C42)      
1 44865U 19090B   23245.36451946 -.00000003  00000+0  00000+0 0  9992
2 44865  55.7048  96.7504 0013440 291.2331 182.4097  1.86231651 25249
BEIDOU-3 G2 (C60)       
1 45344U 20017A   23245.49447686 -.00000155  00000+0  00000+0 0  9994
2 45344   2.0468  16.0975 0003244 152.1317  71.1727  1.00272601 13056
BEIDOU-3 G3 (C61)       
1 45807U 20040A   23245.06438005 -.00000369  00000+0  00000+0 0  9999
2 45807   0.6175 343.2030 0005611 335.0413 156.3757  1.00276562 11861
BEIDOU-3 G4             
1 56564U 23066A   23244.79375375 -.00000129  00000+0  00000+0 0  9995
2 56564   2.8513 288.8077 0007122 210.5382 287.0499  1.00272559  1180
